{"type": "FeatureCollection", "features": [ {"type": "Feature", "properties": {"norad_id": 66633, "name": "STARLINK-35948", "group": "last-30-days", "lat": 30.95194392660977, "lon": -127.08258747410517, "alt_km": 363.204628699792, "timestamp": "2025-12-08T19:31:47.637449+00:00", "meta": {"OBJECT_NAME": "STARLINK-35948", "OBJECT_ID": "2025-271S", "EPOCH": "2025-12-08T06:00:02.999808", "MEAN_MOTION": 15.69408501, "ECCENTRICITY": 0.00010337, "INCLINATION": 53.1592, "RA_OF_ASC_NODE": 208.9701, "ARG_OF_PERICENTER": 74.5926, "MEAN_ANOMALY": 21.2256, "EPHEMERIS_TYPE": 0, "CLASSIFICATION_TYPE": "U", "NORAD_CAT_ID": 66633, "ELEMENT_SET_NO": 999, "REV_AT_EPOCH": 352, "BSTAR": -0.018641438, "MEAN_MOTION_DOT": -0.0197051, "MEAN_MOTION_DDOT": 0}, "tle": {"line1": "1 66633U 25271S   25342.25003472 -.01970510  00000+0 -18641-1 0  9995", "line2": "2 66633  53.1592 208.9701 0001033  74.5926  21.2256 15.69408501  3525"}}, "geometry": {"type": "Point", "coordinates": [-127.08258747410517, 30.95194392660977]}}, {"type": "Feature", "properties": {"norad_id": 66634, "name": "STARLINK-35967", "group": "last-30-days", "lat": 32.313199165004576, "lon": -125.49885073019226, "alt_km": 362.9571535211444, "timestamp": "2025-12-08T19:31:47.637459+00:00", "meta": {"OBJECT_NAME": "STARLINK-35967", "OBJECT_ID": "2025-271T", "EPOCH": "2025-12-08T06:00:02.999808", "MEAN_MOTION": 15.69409659, "ECCENTRICITY": 0.00010787, "INCLINATION": 53.1588, "RA_OF_ASC_NODE": 208.9658, "ARG_OF_PERICENTER": 77.3024, "MEAN_ANOMALY": 20.4317, "EPHEMERIS_TYPE": 0, "CLASSIFICATION_TYPE": "U", "NORAD_CAT_ID": 66634, "ELEMENT_SET_NO": 999, "REV_AT_EPOCH": 345, "BSTAR": -0.018652853, "MEAN_MOTION_DOT": -0.01971693, "MEAN_MOTION_DDOT": 0}, "tle": {"line1": "1 66634U 25271T   25342.25003472 -.01971693  00000+0 -18653-1 0  9992", "line2": "2 66634  53.1588 208.9658 0001078  77.3024  20.4317 15.69409659  3457"}}, "geometry": {"type": "Point", "coordinates": [-125.49885073019226, 32.313199165004576]}}, {"type": "Feature", "properties": {"norad_id": 66635, "name": "STARLINK-35955", "group": "last-30-days", "lat": 33.65454418787741, "lon": -123.86654403378269, "alt_km": 362.84021648948965, "timestamp": "2025-12-08T19:31:47.637468+00:00", "meta": {"OBJECT_NAME": "STARLINK-35955", "OBJECT_ID": "2025-271U", "EPOCH": "2025-12-08T06:00:02.999808", "MEAN_MOTION": 15.69410708, "ECCENTRICITY": 9.354e-05, "INCLINATION": 53.159, "RA_OF_ASC_NODE": 208.9619, "ARG_OF_PERICENTER": 89.1024, "MEAN_ANOMALY": 10.5502, "EPHEMERIS_TYPE": 0, "CLASSIFICATION_TYPE": "U", "NORAD_CAT_ID": 66635, "ELEMENT_SET_NO": 999, "REV_AT_EPOCH": 352, "BSTAR": -0.018686977, "MEAN_MOTION_DOT": -0.01974843, "MEAN_MOTION_DDOT": 0}, "tle": {"line1": "1 66635U 25271U   25342.25003472 -.01974843  00000+0 -18687-1 0  9990", "line2": "2 66635  53.1590 208.9619 0000935  89.1024  10.5502 15.69410708  3521"}}, "geometry": {"type": "Point", "coordinates": [-123.86654403378269, 33.65454418787741]}}, {"type": "Feature", "properties": {"norad_id": 66636, "name": "STARLINK-35968", "group": "last-30-days", "lat": 34.976631925958166, "lon": -122.17950874838205, "alt_km": 362.4335251956054, "timestamp": "2025-12-08T19:31:47.637478+00:00", "meta": {"OBJECT_NAME": "STARLINK-35968", "OBJECT_ID": "2025-271V", "EPOCH": "2025-12-08T06:00:02.999808", "MEAN_MOTION": 15.69401745, "ECCENTRICITY": 0.00011044, "INCLINATION": 53.1593, "RA_OF_ASC_NODE": 208.9576, "ARG_OF_PERICENTER": 72.5754, "MEAN_ANOMALY": 28.9958, "EPHEMERIS_TYPE": 0, "CLASSIFICATION_TYPE": "U", "NORAD_CAT_ID": 66636, "ELEMENT_SET_NO": 999, "REV_AT_EPOCH": 352, "BSTAR": -0.018537895, "MEAN_MOTION_DOT": -0.0196041, "MEAN_MOTION_DDOT": 0}, "tle": {"line1": "1 66636U 25271V   25342.25003472 -.01960410  00000+0 -18538-1 0  9991", "line2": "2 66636  53.1593 208.9576 0001104  72.5754  28.9958 15.69401745  3521"}}, "geometry": {"type": "Point", "coordinates": [-122.17950874838205, 34.976631925958166]}}, {"type": "Feature", "properties": {"norad_id": 66637, "name": "STARLINK-35953", "group": "last-30-days", "lat": 36.26912468762197, "lon": -120.44315218378597, "alt_km": 362.3966377847137, "timestamp": "2025-12-08T19:31:47.637487+00:00", "meta": {"OBJECT_NAME": "STARLINK-35953", "OBJECT_ID": "2025-271W", "EPOCH": "2025-12-08T06:00:02.999808", "MEAN_MOTION": 15.69411388, "ECCENTRICITY": 9.461e-05, "INCLINATION": 53.159, "RA_OF_ASC_NODE": 208.9543, "ARG_OF_PERICENTER": 91.0595, "MEAN_ANOMALY": 12.4244, "EPHEMERIS_TYPE": 0, "CLASSIFICATION_TYPE": "U", "NORAD_CAT_ID": 66637, "ELEMENT_SET_NO": 999, "REV_AT_EPOCH": 352, "BSTAR": -0.018676279, "MEAN_MOTION_DOT": -0.01973903, "MEAN_MOTION_DDOT": 0}, "tle": {"line1": "1 66637U 25271W   25342.25003472 -.01973903  00000+0 -18676-1 0  9996", "line2": "2 66637  53.1590 208.9543 0000946  91.0595  12.4244 15.69411388  3525"}}, "geometry": {"type": "Point", "coordinates": [-120.44315218378597, 36.26912468762197]}}, {"type": "Feature", "properties": {"norad_id": 66638, "name": "STARLINK-35972", "group": "last-30-days", "lat": 37.54035115814978, "lon": -118.64326453261648, "alt_km": 362.1655897860346, "timestamp": "2025-12-08T19:31:47.637498+00:00", "meta": {"OBJECT_NAME": "STARLINK-35972", "OBJECT_ID": "2025-271X", "EPOCH": "2025-12-08T06:00:02.999808", "MEAN_MOTION": 15.69409806, "ECCENTRICITY": 8.627e-05, "INCLINATION": 53.1592, "RA_OF_ASC_NODE": 208.9503, "ARG_OF_PERICENTER": 83.5468, "MEAN_ANOMALY": 21.8508, "EPHEMERIS_TYPE": 0, "CLASSIFICATION_TYPE": "U", "NORAD_CAT_ID": 66638, "ELEMENT_SET_NO": 999, "REV_AT_EPOCH": 352, "BSTAR": -0.018616796, "MEAN_MOTION_DOT": -0.0196818, "MEAN_MOTION_DDOT": 0}, "tle": {"line1": "1 66638U 25271X   25342.25003472 -.01968180  00000+0 -18617-1 0  9993", "line2": "2 66638  53.1592 208.9503 0000862  83.5468  21.8508 15.69409806  3525"}}, "geometry": {"type": "Point", "coordinates": [-118.64326453261648, 37.54035115814978]}}, {"type": "Feature", "properties": {"norad_id": 66639, "name": "STARLINK-35908", "group": "last-30-days", "lat": 38.77937546394047, "lon": -116.78745304400424, "alt_km": 361.95680298182106, "timestamp": "2025-12-08T19:31:47.637508+00:00", "meta": {"OBJECT_NAME": "STARLINK-35908", "OBJECT_ID": "2025-271Y", "EPOCH": "2025-12-08T06:00:02.999808", "MEAN_MOTION": 15.69410924, "ECCENTRICITY": 9.39e-05, "INCLINATION": 53.1591, "RA_OF_ASC_NODE": 208.9458, "ARG_OF_PERICENTER": 87.0431, "MEAN_ANOMALY": 20.2764, "EPHEMERIS_TYPE": 0, "CLASSIFICATION_TYPE": "U", "NORAD_CAT_ID": 66639, "ELEMENT_SET_NO": 999, "REV_AT_EPOCH": 352, "BSTAR": -0.018687243, "MEAN_MOTION_DOT": -0.01974886, "MEAN_MOTION_DDOT": 0}, "tle": {"line1": "1 66639U 25271Y   25342.25003472 -.01974886  00000+0 -18687-1 0  9991", "line2": "2 66639  53.1591 208.9458 0000939  87.0431  20.2764 15.69410924  3528"}}, "geometry": {"type": "Point", "coordinates": [-116.78745304400424, 38.77937546394047]}}, {"type": "Feature", "properties": {"norad_id": 66640, "name": "STARLINK-35921", "group": "last-30-days", "lat": 39.990401402282934, "lon": -114.86160383657362, "alt_km": 361.6604223814238, "timestamp": "2025-12-08T19:31:47.637517+00:00", "meta": {"OBJECT_NAME": "STARLINK-35921", "OBJECT_ID": "2025-271Z", "EPOCH": "2025-12-08T06:00:02.999808", "MEAN_MOTION": 15.69408615, "ECCENTRICITY": 0.00010314, "INCLINATION": 53.1591, "RA_OF_ASC_NODE": 208.9424, "ARG_OF_PERICENTER": 75.204, "MEAN_ANOMALY": 34.0316, "EPHEMERIS_TYPE": 0, "CLASSIFICATION_TYPE": "U", "NORAD_CAT_ID": 66640, "ELEMENT_SET_NO": 999, "REV_AT_EPOCH": 352, "BSTAR": -0.018641926, "MEAN_MOTION_DOT": -0.01970562, "MEAN_MOTION_DDOT": 0}, "tle": {"line1": "1 66640U 25271Z   25342.25003472 -.01970562  00000+0 -18642-1 0  9991", "line2": "2 66640  53.1591 208.9424 0001031  75.2040  34.0316 15.69408615  3522"}}, "geometry": {"type": "Point", "coordinates": [-114.86160383657362, 39.990401402282934]}}, {"type": "Feature", "properties": {"norad_id": 66641, "name": "STARLINK-35923", "group": "last-30-days", "lat": 44.4727929086961, "lon": -106.44893226986214, "alt_km": 360.9629100349657, "timestamp": "2025-12-08T19:31:47.637526+00:00", "meta": {"OBJECT_NAME": "STARLINK-35923", "OBJECT_ID": "2025-271AA", "EPOCH": "2025-12-08T06:00:02.999808", "MEAN_MOTION": 15.69409162, "ECCENTRICITY": 0.00010367, "INCLINATION": 53.159, "RA_OF_ASC_NODE": 208.9255, "ARG_OF_PERICENTER": 88.0569, "MEAN_ANOMALY": 28.8435, "EPHEMERIS_TYPE": 0, "CLASSIFICATION_TYPE": "U", "NORAD_CAT_ID": 66641, "ELEMENT_SET_NO": 999, "REV_AT_EPOCH": 352, "BSTAR": -0.018633323, "MEAN_MOTION_DOT": -0.01969803, "MEAN_MOTION_DDOT": 0}, "tle": {"line1": "1 66641U 25271AA  25342.25003472 -.01969803  00000+0 -18633-1 0  9998", "line2": "2 66641  53.1590 208.9255 0001036  88.0569  28.8435 15.69409162  3528"}}, "geometry": {"type": "Point", "coordinates": [-106.44893226986214, 44.4727929086961]}}, {"type": "Feature", "properties": {"norad_id": 66642, "name": "STARLINK-35926", "group": "last-30-days", "lat": 43.411969961252794, "lon": -108.66441057962552, "alt_km": 361.0699526909275, "timestamp": "2025-12-08T19:31:47.637537+00:00", "meta": {"OBJECT_NAME": "STARLINK-35926", "OBJECT_ID": "2025-271AB", "EPOCH": "2025-12-08T06:00:02.999808", "MEAN_MOTION": 15.69402291, "ECCENTRICITY": 0.0001076, "INCLINATION": 53.1589, "RA_OF_ASC_NODE": 208.9302, "ARG_OF_PERICENTER": 72.6638, "MEAN_ANOMALY": 42.3315, "EPHEMERIS_TYPE": 0, "CLASSIFICATION_TYPE": "U", "NORAD_CAT_ID": 66642, "ELEMENT_SET_NO": 999, "REV_AT_EPOCH": 328, "BSTAR": -0.018624, "MEAN_MOTION_DOT": -0.01968464, "MEAN_MOTION_DDOT": 0}, "tle": {"line1": "1 66642U 25271AB  25342.25003472 -.01968464  00000+0 -18624-1 0  9991", "line2": "2 66642  53.1589 208.9302 0001076  72.6638  42.3315 15.69402291  3287"}}, "geometry": {"type": "Point", "coordinates": [-108.66441057962552, 43.411969961252794]}}]}